[{"OBJECT_NAME":"SCS-01 H","OBJECT_ID":"2025-100H","EPOCH":"2026-03-09T23:19:05.376864","MEAN_MOTION":15.31767757,"ECCENTRICITY":0.00071581,"INCLINATION":97.3749,"RA_OF_ASC_NODE":145.8085,"ARG_OF_PERICENTER":277.8492,"MEAN_ANOMALY":82.1937,"EPHEMERIS_TYPE":0,"CLASSIFICATION_TYPE":"U","NORAD_CAT_ID":63989,"ELEMENT_SET_NO":999,"REV_AT_EPOCH":4566,"BSTAR":0.0011436254,"MEAN_MOTION_DOT":0.00035149,"MEAN_MOTION_DDOT":0},{"OBJECT_NAME":"STARLINK-34887","OBJECT_ID":"2025-167AB","EPOCH":"2026-03-09T02:42:23.315904","MEAN_MOTION":15.30191671,"ECCENTRICITY":0.00011635,"INCLINATION":53.1605,"RA_OF_ASC_NODE":29.1839,"ARG_OF_PERICENTER":74.353,"MEAN_ANOMALY":285.7599,"EPHEMERIS_TYPE":0,"CLASSIFICATION_TYPE":"U","NORAD_CAT_ID":65103,"ELEMENT_SET_NO":999,"REV_AT_EPOCH":3339,"BSTAR":0.0016470706,"MEAN_MOTION_DOT":0.0004873,"MEAN_MOTION_DDOT":0}]
